[{"OBJECT_NAME":"ONEWEB-0192","OBJECT_ID":"2021-031N","EPOCH":"2026-03-09T16:21:59.517504","MEAN_MOTION":13.14502505,"ECCENTRICITY":0.00017307,"INCLINATION":87.8976,"RA_OF_ASC_NODE":309.5687,"ARG_OF_PERICENTER":82.9257,"MEAN_ANOMALY":277.207,"EPHEMERIS_TYPE":0,"CLASSIFICATION_TYPE":"U","NORAD_CAT_ID":48222,"ELEMENT_SET_NO":999,"REV_AT_EPOCH":23510,"BSTAR":-0.00030200996,"MEAN_MOTION_DOT":-9.9e-7,"MEAN_MOTION_DDOT":0},{"OBJECT_NAME":"TUBSAT B","OBJECT_ID":"1994-003C","EPOCH":"2026-03-09T18:44:33.482976","MEAN_MOTION":13.17152588,"ECCENTRICITY":0.00174374,"INCLINATION":82.5657,"RA_OF_ASC_NODE":156.0592,"ARG_OF_PERICENTER":90.3714,"MEAN_ANOMALY":28.1979,"EPHEMERIS_TYPE":0,"CLASSIFICATION_TYPE":"U","NORAD_CAT_ID":22971,"ELEMENT_SET_NO":999,"REV_AT_EPOCH":54398,"BSTAR":0.00029992922,"MEAN_MOTION_DOT":1.28e-6,"MEAN_MOTION_DDOT":0}]
